STARLINK-2355           
1 47895U 21021AM  26068.82025819  .00003508  00000+0  13043-3 0  9995
2 47895  53.1596 267.5423 0000885  86.7609 273.3493 15.30220581276249
KUIPER-00175            
1 67135U 25301C   26068.97960463  .00019968  00000+0  66732-3 0  9998
2 67135  51.8781  63.6978 0002279  50.5695 309.5490 15.30996371 13854
